PANDORA
1 67395U 80229J   26098.58934028  .00000000  00000-0  37770-3 0    05
2 67395  97.8041  98.3335 0005402  13.4830  82.1644 14.87957120    01
